KUZGTU 1 (RS47S)        
1 57217U 23091AV  26197.59187242  .00006736  00000+0  23086-3 0  9993
2 57217  97.5047 262.3820 0009941   1.2666 358.8598 15.30489006168875
SONATE-2                
1 59112U 24043Q   26197.39148124  .00025973  00000+0  31139-3 0  9993
2 59112  97.5560 349.6331 0006824 102.5027 257.6993 15.60890345132444
MESAT1                  
1 60209U 24125G   26197.13772775  .00044120  00000+0  42190-3 0  9994
2 60209  97.2240  55.3450 0010893 109.3193 250.9247 15.66521084114094
OOV-CUBE (TUBSAT-30)    
1 60240U 24128F   26197.53120245  .00000944  00000+0  84626-4 0  9992
2 60240  61.9939 123.2433 0040943 140.3157 220.0943 15.02876977110521
COLIBRI-S (RS67S)       
1 61746U 24199M   26197.59692667  .00013872  00000+0  25857-3 0  9994
2 61746  97.2943  71.7376 0009157 157.2960 202.8698 15.48889476141969
HORS 3 (RS81S)          
1 61753U 24199U   26197.60764145  .00025248  00000+0  35063-3 0  9995
2 61753  97.2926  74.0718 0007275 151.6327 208.5326 15.56978790142136
HORS 4 (RS82S)          
1 61754U 24199V   26197.60033099  .00035474  00000+0  39896-3 0  9993
2 61754  97.2867  75.4722 0007153 144.2975 215.8763 15.62487014142231
SIT-2086                
1 61764U 24199AF  26197.62164813  .00025846  00000+0  38454-3 0  9996
2 61764  97.2882  74.4604 0008368 140.0701 220.1171 15.55088722139005
HYPERVIEW 1G (RS66S)    
1 61772U 24199AP  26197.44027781  .00181228  00000+0  73436-3 0  9993
2 61772  97.2783  78.8351 0008338 145.1551 215.0267 15.85759155139295
ALTAIR (RS65S)          
1 61779U 24199AW  26197.59866543  .00006768  00000+0  18566-3 0  9991
2 61779  97.2986  66.7603 0012182 191.1862 168.9114 15.37525715141639
ASRTU-1 (AO-123)        
1 61781U 24199AY  26197.61349262  .00004352  00000+0  12588-3 0  9996
2 61781  97.2957  66.0211 0013160 195.3697 164.7150 15.36066366138447
SAMSAT-IONOSPHERE (RS7*)
1 61784U 24199BB  26197.58613924  .00035458  00000+0  43465-3 0  9993
2 61784  97.2889  74.2147 0009362 155.6923 204.4777 15.60218802142143
RTU MIREA 1 (RS51S)     
1 61785U 24199BC  26197.60284129  .00043725  00000+0  45520-3 0  9998
2 61785  97.2876  75.2303 0009452 150.9314 209.2473 15.64402230139064
TEVEL2-4                
1 63213U 25052D   26197.25407118  .00010509  00000+0  30596-3 0  9992
2 63213  97.3866  93.7088 0003465  49.2372 310.9172 15.35589805 74571
TEVEL2-5                
1 63214U 25052E   26197.40831625  .00009886  00000+0  28970-3 0  9993
2 63214  97.3863  93.8029 0003486  50.7727 309.3826 15.35404371 74593
TEVEL2-6                
1 63215U 25052F   26196.50888836  .00011734  00000+0  34391-3 0  9999
2 63215  97.3871  92.8865 0003621  54.7007 305.4575 15.35351129 74451
TEVEL2-1                
1 63217U 25052H   26197.20007266  .00009654  00000+0  28846-3 0  9995
2 63217  97.3839  93.1679 0004198  58.1893 301.9759 15.34794260 74546
TEVEL2-3                
1 63218U 25052J   26197.25878627  .00009726  00000+0  29000-3 0  9991
2 63218  97.3845  93.2526 0003909  60.0682 300.0950 15.34858117 74559
TEVEL2-2                
1 63219U 25052K   26197.26539011  .00009606  00000+0  28692-3 0  9997
2 63219  97.3837  93.2363 0004225  58.4463 301.7192 15.34806241 74557
OTP-2                   
1 63235U 25052AB  26197.63886864  .00003806  00000+0  15834-3 0  9997
2 63235  97.3829  89.6315 0008121  67.1870 293.0224 15.24348189 74358
TEVEL2-9                
1 63237U 25052AD  26197.28109239  .00008804  00000+0  28055-3 0  9996
2 63237  97.3902  92.5623 0007594  54.2294 305.9653 15.32752256 74483
TEVEL2-7                
1 63238U 25052AE  26197.19720289  .00008651  00000+0  27848-3 0  9990
2 63238  97.3901  92.3819 0007674  54.1249 306.0705 15.32434040 74462
TEVEL2-8                
1 63239U 25052AF  26197.27103315  .00008714  00000+0  28060-3 0  9992
2 63239  97.3905  92.4323 0007735  55.0329 305.1638 15.32420655 74478
INNOSAT 16 (RS92S7)     
1 64878U 25155C   26197.58300156  .00003048  00000+0  12212-3 0  9999
2 64878  97.4586 164.6265 0012470  84.2384 276.0275 15.25747131 85151
GEOSCAN 6 (RS92S6)      
1 64879U 25155D   26197.60414994  .00005927  00000+0  20230-3 0  9996
2 64879  97.4577 166.2843 0009937  78.2173 282.0182 15.30671395 85265
GEOSCAN 1 (RS92S1)      
1 64880U 25155E   26197.59460612  .00006430  00000+0  21488-3 0  9990
2 64880  97.4573 166.4494 0009867  78.4424 281.7925 15.31320486 85275
239ALFEROV (RS61S)      
1 64881U 25155F   26197.58570951  .00008868  00000+0  27426-3 0  9993
2 64881  97.4572 167.1046 0009570  78.3504 281.8812 15.33694696 85315
GEOSCAN 2 (RS92S2)      
1 64890U 25155Q   26197.58324425  .00006339  00000+0  21025-3 0  9996
2 64890  97.4571 166.6019 0008982  68.8694 291.3507 15.31577732 85280
GEOSCAN 5 (RS92S5)      
1 64891U 25155R   26197.56875022  .00008291  00000+0  25422-3 0  9993
2 64891  97.4564 167.2359 0008602  82.8933 277.3287 15.33999506 85321
GEOSCAN 4 (RS92S4)      
1 64892U 25155S   26197.61508719  .00008622  00000+0  26285-3 0  9992
2 64892  97.4569 167.3401 0008534  83.1111 277.1102 15.34168347 85339
