OBJECT_NAME,OBJECT_ID,EPOCH,MEAN_MOTION,ECCENTRICITY,INCLINATION,RA_OF_ASC_NODE,ARG_OF_PERICENTER,MEAN_ANOMALY,EPHEMERIS_TYPE,CLASSIFICATION_TYPE,NORAD_CAT_ID,ELEMENT_SET_NO,REV_AT_EPOCH,BSTAR,MEAN_MOTION_DOT,MEAN_MOTION_DDOT
KUZGTU 1 (RS47S),2023-091AV,2026-07-16T14:12:17.777088,15.30489006,.00099411,97.5047,262.3820,1.2666,358.8598,0,U,57217,999,16887,.23086321E-3,.6736E-4,0
SONATE-2,2024-043Q,2026-07-16T09:23:43.979136,15.60890345,.00068249,97.5560,349.6331,102.5027,257.6993,0,U,59112,999,13244,.31139494E-3,.25973E-3,0
MESAT1,2024-125G,2026-07-16T03:18:19.677600,15.66521084,.00108936,97.2240,55.3450,109.3193,250.9247,0,U,60209,999,11409,.42190247E-3,.4412E-3,0
OOV-CUBE (TUBSAT-30),2024-128F,2026-07-16T12:44:55.891680,15.02876977,.00409431,61.9939,123.2433,140.3157,220.0943,0,U,60240,999,11052,.84626029E-4,.944E-5,0
COLIBRI-S (RS67S),2024-199M,2026-07-16T14:19:34.464288,15.48889476,.00091579,97.2943,71.7376,157.2960,202.8698,0,U,61746,999,14196,.25856965E-3,.13872E-3,0
HORS 3 (RS81S),2024-199U,2026-07-16T14:35:00.221280,15.56978790,.00072753,97.2926,74.0718,151.6327,208.5326,0,U,61753,999,14213,.35062831E-3,.25248E-3,0
HORS 4 (RS82S),2024-199V,2026-07-16T14:24:28.597536,15.62487014,.00071536,97.2867,75.4722,144.2975,215.8763,0,U,61754,999,14223,.39896256E-3,.35474E-3,0
SIT-2086,2024-199AF,2026-07-16T14:55:10.398432,15.55088722,.00083685,97.2882,74.4604,140.0701,220.1171,0,U,61764,999,13900,.38454137E-3,.25846E-3,0
HYPERVIEW 1G (RS66S),2024-199AP,2026-07-16T10:34:00.002784,15.85759155,.00083382,97.2783,78.8351,145.1551,215.0267,0,U,61772,999,13929,.73436344E-3,.181228E-2,0
ALTAIR (RS65S),2024-199AW,2026-07-16T14:22:04.693152,15.37525715,.00121826,97.2986,66.7603,191.1862,168.9114,0,U,61779,999,14163,.18566159E-3,.6768E-4,0
ASRTU-1 (AO-123),2024-199AY,2026-07-16T14:43:25.762368,15.36066366,.00131605,97.2957,66.0211,195.3697,164.7150,0,U,61781,999,13844,.12587714E-3,.4352E-4,0
SAMSAT-IONOSPHERE (RS75S),2024-199BB,2026-07-16T14:04:02.430336,15.60218802,.00093622,97.2889,74.2147,155.6923,204.4777,0,U,61784,999,14214,.43465008E-3,.35458E-3,0
RTU MIREA 1 (RS51S),2024-199BC,2026-07-16T14:28:05.487456,15.64402230,.00094521,97.2876,75.2303,150.9314,209.2473,0,U,61785,999,13906,.4552036E-3,.43725E-3,0
TEVEL2-4,2025-052D,2026-07-16T06:05:51.749952,15.35589805,.00034651,97.3866,93.7088,49.2372,310.9172,0,U,63213,999,7457,.30595764E-3,.10509E-3,0
TEVEL2-5,2025-052E,2026-07-16T09:47:58.524000,15.35404371,.00034863,97.3863,93.8029,50.7727,309.3826,0,U,63214,999,7459,.28969689E-3,.9886E-4,0
TEVEL2-6,2025-052F,2026-07-15T12:12:47.954304,15.35351129,.00036215,97.3871,92.8865,54.7007,305.4575,0,U,63215,999,7445,.343915E-3,.11734E-3,0
TEVEL2-1,2025-052H,2026-07-16T04:48:06.277824,15.34794260,.00041989,97.3839,93.1679,58.1893,301.9759,0,U,63217,999,7454,.28845962E-3,.9654E-4,0
TEVEL2-3,2025-052J,2026-07-16T06:12:39.133728,15.34858117,.00039099,97.3845,93.2526,60.0682,300.0950,0,U,63218,999,7455,.28999646E-3,.9726E-4,0
TEVEL2-2,2025-052K,2026-07-16T06:22:09.705504,15.34806241,.00042251,97.3837,93.2363,58.4463,301.7192,0,U,63219,999,7455,.28692342E-3,.9606E-4,0
OTP-2,2025-052AB,2026-07-16T15:19:58.250496,15.24348189,.00081218,97.3829,89.6315,67.1870,293.0224,0,U,63235,999,7435,.15834038E-3,.3806E-4,0
TEVEL2-9,2025-052AD,2026-07-16T06:44:46.382496,15.32752256,.00075948,97.3902,92.5623,54.2294,305.9653,0,U,63237,999,7448,.28054896E-3,.8804E-4,0
TEVEL2-7,2025-052AE,2026-07-16T04:43:58.329696,15.32434040,.00076742,97.3901,92.3819,54.1249,306.0705,0,U,63238,999,7446,.27847655E-3,.8651E-4,0
TEVEL2-8,2025-052AF,2026-07-16T06:30:17.264160,15.32420655,.00077354,97.3905,92.4323,55.0329,305.1638,0,U,63239,999,7447,.28059656E-3,.8714E-4,0
INNOSAT 16 (RS92S7),2025-155C,2026-07-16T13:59:31.334784,15.25747131,.00124701,97.4586,164.6265,84.2384,276.0275,0,U,64878,999,8515,.12211647E-3,.3048E-4,0
GEOSCAN 6 (RS92S6),2025-155D,2026-07-16T14:29:58.554816,15.30671395,.00099376,97.4577,166.2843,78.2173,282.0182,0,U,64879,999,8526,.2022976E-3,.5927E-4,0
GEOSCAN 1 (RS92S1),2025-155E,2026-07-16T14:16:13.968768,15.31320486,.00098678,97.4573,166.4494,78.4424,281.7925,0,U,64880,999,8527,.21488044E-3,.643E-4,0
239ALFEROV (RS61S),2025-155F,2026-07-16T14:03:25.301664,15.33694696,.00095708,97.4572,167.1046,78.3504,281.8812,0,U,64881,999,8531,.27426321E-3,.8868E-4,0
GEOSCAN 2 (RS92S2),2025-155Q,2026-07-16T13:59:52.303200,15.31577732,.00089825,97.4571,166.6019,68.8694,291.3507,0,U,64890,999,8528,.21025317E-3,.6339E-4,0
GEOSCAN 5 (RS92S5),2025-155R,2026-07-16T13:39:00.019008,15.33999506,.00086026,97.4564,167.2359,82.8933,277.3287,0,U,64891,999,8532,.25421536E-3,.8291E-4,0
GEOSCAN 4 (RS92S4),2025-155S,2026-07-16T14:45:43.533216,15.34168347,.0008534,97.4569,167.3401,83.1111,277.1102,0,U,64892,999,8533,.26285114E-3,.8622E-4,0
